INTELSAT 23 (IS-23)     
1 38867U 12057A   26200.46725465 -.00000289  00000+0  00000+0 0  9994
2 38867   0.0175  10.7184 0000397 117.2277 284.4937  1.00276401 50276
FM-6                    
1 39360U 13058A   26200.52601409 -.00000020  00000+0  00000+0 0  9996
2 39360   0.0119  34.0000 0001140 140.6944 195.6320  1.00270540 46392
INTELSAT 30 (IS-30)     
1 40271U 14062A   26200.48141826 -.00000155  00000+0  00000+0 0  9991
2 40271   0.0157  52.0720 0001674 340.0620 343.3983  1.00272331  7119
DIRECTV 14              
1 40333U 14078B   26200.52939410 -.00000129  00000+0  00000+0 0  9997
2 40333   0.0143  54.4811 0000312 330.3522   3.8113  1.00270491 42365
DIRECTV 15              
1 40663U 15026A   26200.52870076 -.00000106  00000+0  00000+0 0  9994
2 40663   0.0208  78.7857 0000354 317.5202 348.4540  1.00270153 40781
SKY MEXICO-1            
1 40664U 15026B   26200.53346745 -.00000239  00000+0  00000+0 0  9994
2 40664   0.0189  73.7294 0002447  60.2962 276.5465  1.00272591 40774
INTELSAT 34 (IS-34)     
1 40874U 15039A   26200.46673464 -.00000290  00000+0  00000+0 0  9991
2 40874   0.0097 354.9934 0000514  29.0240  25.7702  1.00274078 39953
INTELSAT 31 (IS-31)     
1 41581U 16035A   26200.23155626 -.00000156  00000+0  00000+0 0  9995
2 41581   0.0043 348.8206 0000958 312.1432 344.3692  1.00272130 37004
INTELSAT 36 (IS-36)     
1 41747U 16053A   26200.56261443 -.00000029  00000+0  00000+0 0  9999
2 41747   0.0094  28.0386 0002346 319.1766 221.1635  1.00272974 36284
INTELSAT 32E (IS-32E)   
1 41945U 17007B   26200.46924799  .00000000  00000+0  00000+0 0  9996
2 41945   0.0176  48.0579 0000638 342.0091  32.9474  1.00270159 34548
INTELSAT 35E (IS-35E)   
1 42818U 17041A   26200.47089466 -.00000242  00000+0  00000+0 0  9997
2 42818   0.0157  67.7872 0001982  50.6028 313.8901  1.00272547 33139
INTELSAT 37E (IS-37E)   
1 42950U 17059A   26200.40283270 -.00000145  00000+0  00000+0 0  9997
2 42950   0.0178  81.6993 0002695  38.5707 303.9347  1.00272956 32383
AZERSPACE 2 (IS-38)     
1 43632U 18074A   26200.55790756  .00000132  00000+0  00000+0 0  9996
2 43632   0.0141  51.7871 0001519  57.2452  74.2633  1.00271511 28773
HORIZONS-3E             
1 43633U 18074B   26200.57475378 -.00000035  00000+0  00000+0 0  9992
2 43633   0.0432 237.6888 0000625  47.9922  27.5734  1.00270682 28664
AT&T T-16               
1 44333U 19034A   26200.28422029 -.00000120  00000+0  00000+0 0  9995
2 44333   0.0144  75.3798 0000793 282.6728 300.4855  1.00272345 25951
INTELSAT 39 (IS-39)     
1 44476U 19049B   26200.41877943  .00000029  00000+0  00000+0 0  9990
2 44476   0.0133  46.6369 0000954 315.2561 148.0136  1.00271054 25458
GALAXY 30 (G-30)        
1 46114U 20056C   26200.52428074  .00000032  00000+0  00000+0 0  9994
2 46114   0.0186  56.1267 0002247  62.9342 241.9916  1.00273013 21610
GALAXY 33 (G-33)        
1 54026U 22128A   26200.49628082  .00000075  00000+0  00000+0 0  9991
2 54026   0.0202  67.8400 0001926  46.5259 228.5534  1.00270665 14064
GALAXY 34 (G-34)        
1 54027U 22128B   26200.52350073  .00000000  00000+0  00000+0 0  9996
2 54027   0.0153  48.6196 0001904  68.8764 239.2830  1.00276032 14234
GALAXY 31 (G-31)        
1 54243U 22153A   26200.52506074  .00000010  00000+0  00000+0 0  9999
2 54243   0.0126 219.4783 0000854 253.5429 252.2926  1.00265569  7458
GALAXY 32 (G-32)        
1 54244U 22153B   26200.23308634 -.00000179  00000+0  00000+0 0  9997
2 54244   0.0148  58.0820 0001410 351.1877 240.6668  1.00272371 13464
GALAXY 35 (G-35)        
1 54741U 22170A   26200.53060744 -.00000166  00000+0  00000+0 0  9994
2 54741   0.0180  94.4712 0001952  21.9149 278.8386  1.00272227 13214
GALAXY 36 (G-36)        
1 54742U 22170B   26200.53138744 -.00000189  00000+0  00000+0 0  9996
2 54742   0.0200 139.5756 0002674 320.5934 299.4459  1.00271759 13094
GALAXY 37 (G-37)        
1 57493U 23112A   26200.52393407  .00000000  00000+0  00000+0 0  9998
2 57493   0.0232  58.7697 0002135  57.7561 242.4059  1.00270892 10861
