OBJECT_NAME,OBJECT_ID,EPOCH,MEAN_MOTION,ECCENTRICITY,INCLINATION,RA_OF_ASC_NODE,ARG_OF_PERICENTER,MEAN_ANOMALY,EPHEMERIS_TYPE,CLASSIFICATION_TYPE,NORAD_CAT_ID,ELEMENT_SET_NO,REV_AT_EPOCH,BSTAR,MEAN_MOTION_DOT,MEAN_MOTION_DDOT
INTELSAT 23 (IS-23),2012-057A,2026-07-19T11:12:50.801760,1.00276401,.00003977,0.0175,10.7184,117.2277,284.4937,0,U,38867,999,5027,0,-.289E-5,0
FM-6,2013-058A,2026-07-19T12:37:27.617376,1.00270540,.00011402,0.0119,34.0000,140.6944,195.6320,0,U,39360,999,4639,0,-.2E-6,0
INTELSAT 30 (IS-30),2014-062A,2026-07-19T11:33:14.537664,1.00272331,.00016741,0.0157,52.0720,340.0620,343.3983,0,U,40271,999,711,0,-.155E-5,0
DIRECTV 14,2014-078B,2026-07-19T12:42:19.650240,1.00270491,.00003124,0.0143,54.4811,330.3522,3.8113,0,U,40333,999,4236,0,-.129E-5,0
DIRECTV 15,2015-026A,2026-07-19T12:41:19.745664,1.00270153,.00003548,0.0208,78.7857,317.5202,348.4540,0,U,40663,999,4078,0,-.106E-5,0
SKY MEXICO-1,2015-026B,2026-07-19T12:48:11.587680,1.00272591,.00024473,0.0189,73.7294,60.2962,276.5465,0,U,40664,999,4077,0,-.239E-5,0
INTELSAT 34 (IS-34),2015-039A,2026-07-19T11:12:05.872896,1.00274078,.0000514,0.0097,354.9934,29.0240,25.7702,0,U,40874,999,3995,0,-.29E-5,0
INTELSAT 31 (IS-31),2016-035A,2026-07-19T05:33:26.460864,1.00272130,.0000958,0.0043,348.8206,312.1432,344.3692,0,U,41581,999,3700,0,-.156E-5,0
INTELSAT 36 (IS-36),2016-053A,2026-07-19T13:30:09.886752,1.00272974,.00023467,0.0094,28.0386,319.1766,221.1635,0,U,41747,999,3628,0,-.29E-6,0
INTELSAT 32E (IS-32E),2017-007B,2026-07-19T11:15:43.026336,1.00270159,.00006381,0.0176,48.0579,342.0091,32.9474,0,U,41945,999,3454,0,0,0
INTELSAT 35E (IS-35E),2017-041A,2026-07-19T11:18:05.298624,1.00272547,.00019829,0.0157,67.7872,50.6028,313.8901,0,U,42818,999,3313,0,-.242E-5,0
INTELSAT 37E (IS-37E),2017-059A,2026-07-19T09:40:04.745280,1.00272956,.00026954,0.0178,81.6993,38.5707,303.9347,0,U,42950,999,3238,0,-.145E-5,0
AZERSPACE 2 (IS-38),2018-074A,2026-07-19T13:23:23.213184,1.00271511,.00015193,0.0141,51.7871,57.2452,74.2633,0,U,43632,999,2877,0,.132E-5,0
HORIZONS-3E,2018-074B,2026-07-19T13:47:38.726592,1.00270682,.00006254,0.0432,237.6888,47.9922,27.5734,0,U,43633,999,2866,0,-.35E-6,0
AT&T T-16,2019-034A,2026-07-19T06:49:16.633056,1.00272345,.00007934,0.0144,75.3798,282.6728,300.4855,0,U,44333,999,2595,0,-.12E-5,0
INTELSAT 39 (IS-39),2019-049B,2026-07-19T10:03:02.542752,1.00271054,.00009541,0.0133,46.6369,315.2561,148.0136,0,U,44476,999,2545,0,.29E-6,0
GALAXY 30 (G-30),2020-056C,2026-07-19T12:34:57.855936,1.00273013,.00022475,0.0186,56.1267,62.9342,241.9916,0,U,46114,999,2161,0,.32E-6,0
GALAXY 33 (G-33),2022-128A,2026-07-19T11:54:38.662848,1.00270665,.00019269,0.0202,67.8400,46.5259,228.5534,0,U,54026,999,1406,0,.75E-6,0
GALAXY 34 (G-34),2022-128B,2026-07-19T12:33:50.463072,1.00276032,.00019046,0.0153,48.6196,68.8764,239.2830,0,U,54027,999,1423,0,0,0
GALAXY 31 (G-31),2022-153A,2026-07-19T12:36:05.247936,1.00265569,.00008546,0.0126,219.4783,253.5429,252.2926,0,U,54243,999,745,0,.1E-6,0
GALAXY 32 (G-32),2022-153B,2026-07-19T05:35:38.659776,1.00272371,.00014106,0.0148,58.0820,351.1877,240.6668,0,U,54244,999,1346,0,-.179E-5,0
GALAXY 35 (G-35),2022-170A,2026-07-19T12:44:04.482816,1.00272227,.00019521,0.0180,94.4712,21.9149,278.8386,0,U,54741,999,1321,0,-.166E-5,0
GALAXY 36 (G-36),2022-170B,2026-07-19T12:45:11.874816,1.00271759,.00026747,0.0200,139.5756,320.5934,299.4459,0,U,54742,999,1309,0,-.189E-5,0
GALAXY 37 (G-37),2023-112A,2026-07-19T12:34:27.903648,1.00270892,.00021351,0.0232,58.7697,57.7561,242.4059,0,U,57493,999,1086,0,0,0
